[{"OBJECT_NAME":"NUSAT-35 (WILLIAMINA)","OBJECT_ID":"2023-001AR","EPOCH":"2026-03-09T22:28:40.425600","MEAN_MOTION":15.3245616,"ECCENTRICITY":0.00136635,"INCLINATION":97.1993,"RA_OF_ASC_NODE":124.278,"ARG_OF_PERICENTER":97.0313,"MEAN_ANOMALY":263.2484,"EPHEMERIS_TYPE":0,"CLASSIFICATION_TYPE":"U","NORAD_CAT_ID":55048,"ELEMENT_SET_NO":999,"REV_AT_EPOCH":17719,"BSTAR":0.00053479647,"MEAN_MOTION_DOT":0.0001675,"MEAN_MOTION_DDOT":0},{"OBJECT_NAME":"STARLINK-32810","OBJECT_ID":"2025-034J","EPOCH":"2026-03-09T19:32:14.394336","MEAN_MOTION":15.30198249,"ECCENTRICITY":8.403e-5,"INCLINATION":53.158,"RA_OF_ASC_NODE":257.7044,"ARG_OF_PERICENTER":97.7827,"MEAN_ANOMALY":262.3269,"EPHEMERIS_TYPE":0,"CLASSIFICATION_TYPE":"U","NORAD_CAT_ID":63037,"ELEMENT_SET_NO":999,"REV_AT_EPOCH":5910,"BSTAR":0.001064822,"MEAN_MOTION_DOT":0.00031309,"MEAN_MOTION_DDOT":0}]
